ARKTIKA-M 2             
1 58584U 23198A   25165.37826746  .00000228  00000+0  00000+0 0  9995
2 58584  63.2298 194.6701 6872282 268.8338  18.4976  2.00602684 10940
TIANMU-1 11             
1 58645U 23205A   25165.75910453  .00004941  00000+0  21826-3 0  9992
2 58645  97.3712 188.7340 0008998 209.0092 151.0645 15.22148300 81542
TIANMU-1 12             
1 58646U 23205B   25165.77597711  .00004814  00000+0  21318-3 0  9998
2 58646  97.3699 188.6104 0007462 193.4681 166.6358 15.22087086 81534
TIANMU-1 13             
1 58647U 23205C   25165.87454851  .00005434  00000+0  24037-3 0  9997
2 58647  97.3728 188.8411 0008278 172.3929 187.7435 15.22062174 81540
TIANMU-1 14             
1 58648U 23205D   25165.85775121  .00005160  00000+0  22825-3 0  9991
2 58648  97.3656 188.3409 0009115 179.0103 181.1153 15.22082803 81548
TIANMU-1 19             
1 58660U 23208A   25165.72897241  .00007184  00000+0  29753-3 0  9997
2 58660  97.4289 277.8597 0006342 161.8881 198.2583 15.24207520 81226
TIANMU-1 20             
1 58661U 23208B   25165.85771095  .00007147  00000+0  28548-3 0  9990
2 58661  97.4225 278.2578 0008473 174.8111 185.3217 15.25410723 81298
TIANMU-1 21             
1 58662U 23208C   25165.85124564  .00008144  00000+0  30655-3 0  9994
2 58662  97.4268 279.4539 0008138 172.1489 187.9879 15.27347017 81359
TIANMU-1 22             
1 58663U 23208D   25165.84697701  .00006652  00000+0  27595-3 0  9993
2 58663  97.4284 278.0790 0004304 177.9694 182.1561 15.24191049 81257
TIANMU-1 15             
1 58700U 24004A   25165.59273943  .00005641  00000+0  25026-3 0  9994
2 58700  97.4653 348.0934 0006331 193.0942 167.0131 15.21969740 79771
TIANMU-1 16             
1 58701U 24004B   25165.84010297  .00005579  00000+0  24719-3 0  9992
2 58701  97.4588 347.8810 0006545 198.3934 161.7067 15.22012550 79818
TIANMU-1 17             
1 58702U 24004C   25165.76030147  .00005157  00000+0  22775-3 0  9992
2 58702  97.4625 348.1231 0005173 196.5657 163.5411 15.22172670 79790
TIANMU-1 18             
1 58703U 24004D   25165.74277720  .00005088  00000+0  22532-3 0  9995
2 58703  97.4643 348.2607 0005348 183.6126 176.5072 15.22078634 79793
INSAT-3DS               
1 58990U 24033A   25165.61218830 -.00000143  00000+0  00000+0 0  9998
2 58990   0.0343  94.8915 0001448 346.4166 124.3084  1.00270824 43380
