[
  {
    "OBJECT_NAME": "ARKTIKA-M 2",
    "OBJECT_ID": "2023-198A",
    "EPOCH": "2025-06-14T09:04:42.308544",
    "MEAN_MOTION": 2.00602684,
    "ECCENTRICITY": 0.6872282,
    "INCLINATION": 63.2298,
    "RA_OF_ASC_NODE": 194.6701,
    "ARG_OF_PERICENTER": 268.8338,
    "MEAN_ANOMALY": 18.4976,
    "EPHEMERIS_TYPE": 0,
    "CLASSIFICATION_TYPE": "U",
    "NORAD_CAT_ID": 58584,
    "ELEMENT_SET_NO": 999,
    "REV_AT_EPOCH": 1094,
    "BSTAR": 0,
    "MEAN_MOTION_DOT": 2.28e-06,
    "MEAN_MOTION_DDOT": 0
  },
  {
    "OBJECT_NAME": "TIANMU-1 11",
    "OBJECT_ID": "2023-205A",
    "EPOCH": "2025-06-14T18:13:06.631392",
    "MEAN_MOTION": 15.221483,
    "ECCENTRICITY": 0.0008998,
    "INCLINATION": 97.3712,
    "RA_OF_ASC_NODE": 188.734,
    "ARG_OF_PERICENTER": 209.0092,
    "MEAN_ANOMALY": 151.0645,
    "EPHEMERIS_TYPE": 0,
    "CLASSIFICATION_TYPE": "U",
    "NORAD_CAT_ID": 58645,
    "ELEMENT_SET_NO": 999,
    "REV_AT_EPOCH": 8154,
    "BSTAR": 0.00021826,
    "MEAN_MOTION_DOT": 4.941e-05,
    "MEAN_MOTION_DDOT": 0
  },
  {
    "OBJECT_NAME": "TIANMU-1 12",
    "OBJECT_ID": "2023-205B",
    "EPOCH": "2025-06-14T18:37:24.422304",
    "MEAN_MOTION": 15.22087086,
    "ECCENTRICITY": 0.0007462,
    "INCLINATION": 97.3699,
    "RA_OF_ASC_NODE": 188.6104,
    "ARG_OF_PERICENTER": 193.4681,
    "MEAN_ANOMALY": 166.6358,
    "EPHEMERIS_TYPE": 0,
    "CLASSIFICATION_TYPE": "U",
    "NORAD_CAT_ID": 58646,
    "ELEMENT_SET_NO": 999,
    "REV_AT_EPOCH": 8153,
    "BSTAR": 0.00021318,
    "MEAN_MOTION_DOT": 4.814e-05,
    "MEAN_MOTION_DDOT": 0
  },
  {
    "OBJECT_NAME": "TIANMU-1 13",
    "OBJECT_ID": "2023-205C",
    "EPOCH": "2025-06-14T20:59:20.991264",
    "MEAN_MOTION": 15.22062174,
    "ECCENTRICITY": 0.0008278,
    "INCLINATION": 97.3728,
    "RA_OF_ASC_NODE": 188.8411,
    "ARG_OF_PERICENTER": 172.3929,
    "MEAN_ANOMALY": 187.7435,
    "EPHEMERIS_TYPE": 0,
    "CLASSIFICATION_TYPE": "U",
    "NORAD_CAT_ID": 58647,
    "ELEMENT_SET_NO": 999,
    "REV_AT_EPOCH": 8154,
    "BSTAR": 0.00024037,
    "MEAN_MOTION_DOT": 5.434e-05,
    "MEAN_MOTION_DDOT": 0
  },
  {
    "OBJECT_NAME": "TIANMU-1 14",
    "OBJECT_ID": "2023-205D",
    "EPOCH": "2025-06-14T20:35:09.704544",
    "MEAN_MOTION": 15.22082803,
    "ECCENTRICITY": 0.0009115,
    "INCLINATION": 97.3656,
    "RA_OF_ASC_NODE": 188.3409,
    "ARG_OF_PERICENTER": 179.0103,
    "MEAN_ANOMALY": 181.1153,
    "EPHEMERIS_TYPE": 0,
    "CLASSIFICATION_TYPE": "U",
    "NORAD_CAT_ID": 58648,
    "ELEMENT_SET_NO": 999,
    "REV_AT_EPOCH": 8154,
    "BSTAR": 0.00022825,
    "MEAN_MOTION_DOT": 5.16e-05,
    "MEAN_MOTION_DDOT": 0
  },
  {
    "OBJECT_NAME": "TIANMU-1 19",
    "OBJECT_ID": "2023-208A",
    "EPOCH": "2025-06-14T17:29:43.216224",
    "MEAN_MOTION": 15.2420752,
    "ECCENTRICITY": 0.0006342,
    "INCLINATION": 97.4289,
    "RA_OF_ASC_NODE": 277.8597,
    "ARG_OF_PERICENTER": 161.8881,
    "MEAN_ANOMALY": 198.2583,
    "EPHEMERIS_TYPE": 0,
    "CLASSIFICATION_TYPE": "U",
    "NORAD_CAT_ID": 58660,
    "ELEMENT_SET_NO": 999,
    "REV_AT_EPOCH": 8122,
    "BSTAR": 0.00029753,
    "MEAN_MOTION_DOT": 7.184e-05,
    "MEAN_MOTION_DDOT": 0
  },
  {
    "OBJECT_NAME": "TIANMU-1 20",
    "OBJECT_ID": "2023-208B",
    "EPOCH": "2025-06-14T20:35:06.226080",
    "MEAN_MOTION": 15.25410723,
    "ECCENTRICITY": 0.0008473,
    "INCLINATION": 97.4225,
    "RA_OF_ASC_NODE": 278.2578,
    "ARG_OF_PERICENTER": 174.8111,
    "MEAN_ANOMALY": 185.3217,
    "EPHEMERIS_TYPE": 0,
    "CLASSIFICATION_TYPE": "U",
    "NORAD_CAT_ID": 58661,
    "ELEMENT_SET_NO": 999,
    "REV_AT_EPOCH": 8129,
    "BSTAR": 0.00028548,
    "MEAN_MOTION_DOT": 7.147e-05,
    "MEAN_MOTION_DDOT": 0
  },
  {
    "OBJECT_NAME": "TIANMU-1 21",
    "OBJECT_ID": "2023-208C",
    "EPOCH": "2025-06-14T20:25:47.623296",
    "MEAN_MOTION": 15.27347017,
    "ECCENTRICITY": 0.0008138,
    "INCLINATION": 97.4268,
    "RA_OF_ASC_NODE": 279.4539,
    "ARG_OF_PERICENTER": 172.1489,
    "MEAN_ANOMALY": 187.9879,
    "EPHEMERIS_TYPE": 0,
    "CLASSIFICATION_TYPE": "U",
    "NORAD_CAT_ID": 58662,
    "ELEMENT_SET_NO": 999,
    "REV_AT_EPOCH": 8135,
    "BSTAR": 0.00030655,
    "MEAN_MOTION_DOT": 8.144e-05,
    "MEAN_MOTION_DDOT": 0
  },
  {
    "OBJECT_NAME": "TIANMU-1 22",
    "OBJECT_ID": "2023-208D",
    "EPOCH": "2025-06-14T20:19:38.813664",
    "MEAN_MOTION": 15.24191049,
    "ECCENTRICITY": 0.0004304,
    "INCLINATION": 97.4284,
    "RA_OF_ASC_NODE": 278.079,
    "ARG_OF_PERICENTER": 177.9694,
    "MEAN_ANOMALY": 182.1561,
    "EPHEMERIS_TYPE": 0,
    "CLASSIFICATION_TYPE": "U",
    "NORAD_CAT_ID": 58663,
    "ELEMENT_SET_NO": 999,
    "REV_AT_EPOCH": 8125,
    "BSTAR": 0.00027595,
    "MEAN_MOTION_DOT": 6.652e-05,
    "MEAN_MOTION_DDOT": 0
  },
  {
    "OBJECT_NAME": "TIANMU-1 15",
    "OBJECT_ID": "2024-004A",
    "EPOCH": "2025-06-14T14:13:32.686752",
    "MEAN_MOTION": 15.2196974,
    "ECCENTRICITY": 0.0006331,
    "INCLINATION": 97.4653,
    "RA_OF_ASC_NODE": 348.0934,
    "ARG_OF_PERICENTER": 193.0942,
    "MEAN_ANOMALY": 167.0131,
    "EPHEMERIS_TYPE": 0,
    "CLASSIFICATION_TYPE": "U",
    "NORAD_CAT_ID": 58700,
    "ELEMENT_SET_NO": 999,
    "REV_AT_EPOCH": 7977,
    "BSTAR": 0.00025026,
    "MEAN_MOTION_DOT": 5.641e-05,
    "MEAN_MOTION_DDOT": 0
  },
  {
    "OBJECT_NAME": "TIANMU-1 16",
    "OBJECT_ID": "2024-004B",
    "EPOCH": "2025-06-14T20:09:44.896608",
    "MEAN_MOTION": 15.2201255,
    "ECCENTRICITY": 0.0006545,
    "INCLINATION": 97.4588,
    "RA_OF_ASC_NODE": 347.881,
    "ARG_OF_PERICENTER": 198.3934,
    "MEAN_ANOMALY": 161.7067,
    "EPHEMERIS_TYPE": 0,
    "CLASSIFICATION_TYPE": "U",
    "NORAD_CAT_ID": 58701,
    "ELEMENT_SET_NO": 999,
    "REV_AT_EPOCH": 7981,
    "BSTAR": 0.00024719,
    "MEAN_MOTION_DOT": 5.579e-05,
    "MEAN_MOTION_DDOT": 0
  },
  {
    "OBJECT_NAME": "TIANMU-1 17",
    "OBJECT_ID": "2024-004C",
    "EPOCH": "2025-06-14T18:14:50.047008",
    "MEAN_MOTION": 15.2217267,
    "ECCENTRICITY": 0.0005173,
    "INCLINATION": 97.4625,
    "RA_OF_ASC_NODE": 348.1231,
    "ARG_OF_PERICENTER": 196.5657,
    "MEAN_ANOMALY": 163.5411,
    "EPHEMERIS_TYPE": 0,
    "CLASSIFICATION_TYPE": "U",
    "NORAD_CAT_ID": 58702,
    "ELEMENT_SET_NO": 999,
    "REV_AT_EPOCH": 7979,
    "BSTAR": 0.00022775,
    "MEAN_MOTION_DOT": 5.157e-05,
    "MEAN_MOTION_DDOT": 0
  },
  {
    "OBJECT_NAME": "TIANMU-1 18",
    "OBJECT_ID": "2024-004D",
    "EPOCH": "2025-06-14T17:49:35.950080",
    "MEAN_MOTION": 15.22078634,
    "ECCENTRICITY": 0.0005348,
    "INCLINATION": 97.4643,
    "RA_OF_ASC_NODE": 348.2607,
    "ARG_OF_PERICENTER": 183.6126,
    "MEAN_ANOMALY": 176.5072,
    "EPHEMERIS_TYPE": 0,
    "CLASSIFICATION_TYPE": "U",
    "NORAD_CAT_ID": 58703,
    "ELEMENT_SET_NO": 999,
    "REV_AT_EPOCH": 7979,
    "BSTAR": 0.00022532,
    "MEAN_MOTION_DOT": 5.088e-05,
    "MEAN_MOTION_DDOT": 0
  },
  {
    "OBJECT_NAME": "INSAT-3DS",
    "OBJECT_ID": "2024-033A",
    "EPOCH": "2025-06-14T14:41:33.069120",
    "MEAN_MOTION": 1.00270824,
    "ECCENTRICITY": 0.0001448,
    "INCLINATION": 0.0343,
    "RA_OF_ASC_NODE": 94.8915,
    "ARG_OF_PERICENTER": 346.4166,
    "MEAN_ANOMALY": 124.3084,
    "EPHEMERIS_TYPE": 0,
    "CLASSIFICATION_TYPE": "U",
    "NORAD_CAT_ID": 58990,
    "ELEMENT_SET_NO": 999,
    "REV_AT_EPOCH": 4338,
    "BSTAR": 0,
    "MEAN_MOTION_DOT": -1.43e-06,
    "MEAN_MOTION_DDOT": 0
  }
]